start=new Date('2022-11-06T00:00:00.000Z').valueOf();
sats=[{"PERIOD":"95.593","MEAN_MOTION_DOT":"-0.00003424","ELEMENT_SET_NO":"999","EPHEMERIS_TYPE":"0","INCLINATION":"53.0548","DECAY_DATE":null,"NORAD_CAT_ID":"46118","EPOCH":"2022-11-05T12:10:03.880704","TLE_LINE1":"1 46118U 20057B   22309.50698936 -.00003424  00000-0 -21117-3 0  9996","APOAPSIS":"548.352","SITE":"AFETR","CLASSIFICATION_TYPE":"U","PERIAPSIS":"546.154","COUNTRY_CODE":"US","REF_FRAME":"TEME","FILE":"3646041","LAUNCH_DATE":"2020-08-18","OBJECT_ID":"2020-057B","OBJECT_TYPE":"PAYLOAD","SEMIMAJOR_AXIS":"6925.388","CENTER_NAME":"EARTH","MEAN_ANOMALY":"269.1644","RA_OF_ASC_NODE":"34.2192","MEAN_ELEMENT_THEORY":"SGP4","RCS_SIZE":"LARGE","TIME_SYSTEM":"UTC","GP_ID":"216985721","MEAN_MOTION":"15.06387052","MEAN_MOTION_DDOT":"0.0000000000000","REV_AT_EPOCH":"12281","ECCENTRICITY":"0.00015870","OBJECT_NAME":"STARLINK-1588","TLE_LINE2":"2 46118  53.0548  34.2192 0001587  90.9527 269.1644 15.06387052122814","BSTAR":"-0.00021117000000","ARG_OF_PERICENTER":"90.9527"},{"TIME_SYSTEM":"UTC","RCS_SIZE":"LARGE","MEAN_MOTION":"15.06383963","GP_ID":"217016087","CENTER_NAME":"EARTH","SEMIMAJOR_AXIS":"6925.398","MEAN_ELEMENT_THEORY":"SGP4","RA_OF_ASC_NODE":"33.6789","MEAN_ANOMALY":"349.4686","TLE_LINE2":"2 46119  53.0563  33.6789 0002170  10.6348 349.4686 15.06383963123430","BSTAR":"-0.00022335000000","OBJECT_NAME":"STARLINK-1593","ARG_OF_PERICENTER":"10.6348","REV_AT_EPOCH":"12343","MEAN_MOTION_DDOT":"0.0000000000000","ECCENTRICITY":"0.00021700","FILE":"3646512","LAUNCH_DATE":"2020-08-18","PERIAPSIS":"545.760","REF_FRAME":"TEME","COUNTRY_CODE":"US","OBJECT_TYPE":"PAYLOAD","OBJECT_ID":"2020-057C","TLE_LINE1":"1 46119U 20057C   22309.62863815 -.00003606  00000-0 -22335-3 0  9995","SITE":"AFETR","APOAPSIS":"548.766","CLASSIFICATION_TYPE":"U","MEAN_MOTION_DOT":"-0.00003606","ELEMENT_SET_NO":"999","EPHEMERIS_TYPE":"0","PERIOD":"95.593","NORAD_CAT_ID":"46119","DECAY_DATE":null,"EPOCH":"2022-11-05T15:05:14.336160","INCLINATION":"53.0563"},{"SITE":"AFETR","TLE_LINE1":"1 46120U 20057D   22309.74659707 -.00004239  00000-0 -26606-3 0  9991","APOAPSIS":"548.397","CLASSIFICATION_TYPE":"U","PERIOD":"95.594","MEAN_MOTION_DOT":"-0.00004239","ELEMENT_SET_NO":"999","EPHEMERIS_TYPE":"0","INCLINATION":"53.0560","NORAD_CAT_ID":"46120","DECAY_DATE":null,"EPOCH":"2022-11-05T17:55:05.986848","CENTER_NAME":"EARTH","SEMIMAJOR_AXIS":"6925.427","MEAN_ELEMENT_THEORY":"SGP4","RA_OF_ASC_NODE":"33.1713","MEAN_ANOMALY":"289.4877","TIME_SYSTEM":"UTC","RCS_SIZE":"LARGE","GP_ID":"217015838","MEAN_MOTION":"15.06374290","REV_AT_EPOCH":"12347","MEAN_MOTION_DDOT":"0.0000000000000","ECCENTRICITY":"0.00015950","TLE_LINE2":"2 46120  53.0560  33.1713 0001595  70.6284 289.4877 15.06374290123478","BSTAR":"-0.00026606000000","OBJECT_NAME":"STARLINK-1601","ARG_OF_PERICENTER":"70.6284","PERIAPSIS":"546.188","REF_FRAME":"TEME","COUNTRY_CODE":"US","FILE":"3646512","LAUNCH_DATE":"2020-08-18","OBJECT_ID":"2020-057D","OBJECT_TYPE":"PAYLOAD"},{"NORAD_CAT_ID":"46121","DECAY_DATE":null,"EPOCH":"2022-11-05T13:58:53.752512","INCLINATION":"53.0555","MEAN_MOTION_DOT":"-0.00002386","EPHEMERIS_TYPE":"0","ELEMENT_SET_NO":"999","PERIOD":"95.593","CLASSIFICATION_TYPE":"U","SITE":"AFETR","TLE_LINE1":"1 46121U 20057E   22309.58256658 -.00002386  00000-0 -14143-3 0  9996","APOAPSIS":"548.310","OBJECT_TYPE":"PAYLOAD","OBJECT_ID":"2020-057E","FILE":"3646512","LAUNCH_DATE":"2020-08-18","PERIAPSIS":"546.227","REF_FRAME":"TEME","COUNTRY_CODE":"US","BSTAR":"-0.00014143000000","TLE_LINE2":"2 46121  53.0555  13.9015 0001504  47.9073 312.2044 15.06382015122448","OBJECT_NAME":"STARLINK-1602","ARG_OF_PERICENTER":"47.9073","REV_AT_EPOCH":"12244","MEAN_MOTION_DDOT":"0.0000000000000","ECCENTRICITY":"0.00015040","RCS_SIZE":"LARGE","TIME_SYSTEM":"UTC","MEAN_MOTION":"15.06382015","GP_ID":"217014586","CENTER_NAME":"EARTH","SEMIMAJOR_AXIS":"6925.404","RA_OF_ASC_NODE":"13.9015","MEAN_ELEMENT_THEORY":"SGP4","MEAN_ANOMALY":"312.2044"},{"CLASSIFICATION_TYPE":"U","APOAPSIS":"548.514","TLE_LINE1":"1 46122U 20057F   22309.39272111 -.00002351  00000-0 -13895-3 0  9993","SITE":"AFETR","INCLINATION":"53.0553","EPOCH":"2022-11-05T09:25:31.103904","DECAY_DATE":null,"NORAD_CAT_ID":"46122","PERIOD":"95.592","EPHEMERIS_TYPE":"0","ELEMENT_SET_NO":"999","MEAN_MOTION_DOT":"-0.00002351","ECCENTRICITY":"0.00018660","MEAN_MOTION_DDOT":"0.0000000000000","REV_AT_EPOCH":"12395","ARG_OF_PERICENTER":"48.5095","OBJECT_NAME":"STARLINK-1604","BSTAR":"-0.00013895000000","TLE_LINE2":"2 46122  53.0553 354.7356 0001866  48.5095 311.6053 15.06397378123951","MEAN_ANOMALY":"311.6053","MEAN_ELEMENT_THEORY":"SGP4","RA_OF_ASC_NODE":"354.7356","SEMIMAJOR_AXIS":"6925.357","CENTER_NAME":"EARTH","MEAN_MOTION":"15.06397378","GP_ID":"216960596","TIME_SYSTEM":"UTC","RCS_SIZE":"LARGE","OBJECT_ID":"2020-057F","OBJECT_TYPE":"PAYLOAD","COUNTRY_CODE":"US","REF_FRAME":"TEME","PERIAPSIS":"545.929","LAUNCH_DATE":"2020-08-18","FILE":"3645109"},{"REF_FRAME":"TEME","COUNTRY_CODE":"US","PERIAPSIS":"546.037","LAUNCH_DATE":"2020-08-18","FILE":"3645109","OBJECT_ID":"2020-057G","OBJECT_TYPE":"PAYLOAD","MEAN_ELEMENT_THEORY":"SGP4","RA_OF_ASC_NODE":"354.2251","MEAN_ANOMALY":"313.8855","CENTER_NAME":"EARTH","SEMIMAJOR_AXIS":"6925.388","GP_ID":"216958846","MEAN_MOTION":"15.06387042","TIME_SYSTEM":"UTC","RCS_SIZE":"LARGE","ECCENTRICITY":"0.00017560","REV_AT_EPOCH":"12399","MEAN_MOTION_DDOT":"0.0000000000000","ARG_OF_PERICENTER":"46.2279","BSTAR":"-0.00008628300000","TLE_LINE2":"2 46123  53.0551 354.2251 0001756  46.2279 313.8855 15.06387042123991","OBJECT_NAME":"STARLINK-1605","PERIOD":"95.593","EPHEMERIS_TYPE":"0","ELEMENT_SET_NO":"999","MEAN_MOTION_DOT":"-0.00001566","INCLINATION":"53.0551","EPOCH":"2022-11-05T12:15:23.531328","NORAD_CAT_ID":"46123","DECAY_DATE":null,"APOAPSIS":"548.469","TLE_LINE1":"1 46123U 20057G   22309.51068902 -.00001566  00000-0 -86283-4 0  9998","SITE":"AFETR","CLASSIFICATION_TYPE":"U"},{"APOAPSIS":"548.561","TLE_LINE1":"1 46124U 20057H   22309.38535488 -.00002526  00000-0 -15074-3 0  9998","SITE":"AFETR","CLASSIFICATION_TYPE":"U","ELEMENT_SET_NO":"999","EPHEMERIS_TYPE":"0","MEAN_MOTION_DOT":"-0.00002526","PERIOD":"95.593","EPOCH":"2022-11-05T09:14:54.661632","NORAD_CAT_ID":"46124","DECAY_DATE":null,"INCLINATION":"53.0559","GP_ID":"216959096","MEAN_MOTION":"15.06393120","TIME_SYSTEM":"UTC","RCS_SIZE":"LARGE","MEAN_ELEMENT_THEORY":"SGP4","RA_OF_ASC_NODE":"354.7717","MEAN_ANOMALY":"317.6940","CENTER_NAME":"EARTH","SEMIMAJOR_AXIS":"6925.370","ARG_OF_PERICENTER":"42.4197","BSTAR":"-0.00015074000000","TLE_LINE2":"2 46124  53.0559 354.7717 0001915  42.4197 317.6940 15.06393120122705","OBJECT_NAME":"STARLINK-1614","ECCENTRICITY":"0.00019150","REV_AT_EPOCH":"12270","MEAN_MOTION_DDOT":"0.0000000000000","LAUNCH_DATE":"2020-08-18","FILE":"3645109","REF_FRAME":"TEME","COUNTRY_CODE":"US","PERIAPSIS":"545.908","OBJECT_TYPE":"PAYLOAD","OBJECT_ID":"2020-057H"},{"RCS_SIZE":"LARGE","TIME_SYSTEM":"UTC","MEAN_MOTION":"15.06375059","GP_ID":"217015086","SEMIMAJOR_AXIS":"6925.425","CENTER_NAME":"EARTH","MEAN_ANOMALY":"278.9851","MEAN_ELEMENT_THEORY":"SGP4","RA_OF_ASC_NODE":"33.6812","OBJECT_NAME":"STARLINK-1618","TLE_LINE2":"2 46125  53.0560  33.6812 0001421  81.1299 278.9851 15.06375059123434","BSTAR":"-0.00030460000000","ARG_OF_PERICENTER":"81.1299","MEAN_MOTION_DDOT":"0.0000000000000","REV_AT_EPOCH":"12343","ECCENTRICITY":"0.00014210","FILE":"3646512","LAUNCH_DATE":"2020-08-18","PERIAPSIS":"546.306","COUNTRY_CODE":"US","REF_FRAME":"TEME","OBJECT_TYPE":"PAYLOAD","OBJECT_ID":"2020-057J","APOAPSIS":"548.274","TLE_LINE1":"1 46125U 20057J   22309.63233254 -.00004812  00000-0 -30460-3 0  9999","SITE":"AFETR","CLASSIFICATION_TYPE":"U","MEAN_MOTION_DOT":"-0.00004812","ELEMENT_SET_NO":"999","EPHEMERIS_TYPE":"0","PERIOD":"95.594","DECAY_DATE":null,"NORAD_CAT_ID":"46125","EPOCH":"2022-11-05T15:10:33.531456","INCLINATION":"53.0560"},{"REF_FRAME":"TEME","COUNTRY_CODE":"US","PERIAPSIS":"546.323","LAUNCH_DATE":"2020-08-18","FILE":"3645109","OBJECT_ID":"2020-057K","OBJECT_TYPE":"PAYLOAD","RA_OF_ASC_NODE":"34.0966","MEAN_ELEMENT_THEORY":"SGP4","MEAN_ANOMALY":"287.4372","CENTER_NAME":"EARTH","SEMIMAJOR_AXIS":"6925.406","GP_ID":"216960096","MEAN_MOTION":"15.06381358","TIME_SYSTEM":"UTC","RCS_SIZE":"LARGE","ECCENTRICITY":"0.00013680","REV_AT_EPOCH":"12216","MEAN_MOTION_DDOT":"0.0000000000000","ARG_OF_PERICENTER":"72.6767","BSTAR":"-0.00005171300000","TLE_LINE2":"2 46126  53.0552  34.0966 0001368  72.6767 287.4372 15.06381358122167","OBJECT_NAME":"STARLINK-1619","PERIOD":"95.593","ELEMENT_SET_NO":"999","EPHEMERIS_TYPE":"0","MEAN_MOTION_DOT":"-0.00001051","INCLINATION":"53.0552","EPOCH":"2022-11-05T12:57:51.017184","NORAD_CAT_ID":"46126","DECAY_DATE":null,"SITE":"AFETR","TLE_LINE1":"1 46126U 20057K   22309.54017381 -.00001051  00000-0 -51713-4 0  9998","APOAPSIS":"548.218","CLASSIFICATION_TYPE":"U"},{"ELEMENT_SET_NO":"999","EPHEMERIS_TYPE":"0","MEAN_MOTION_DOT":"-0.00006109","PERIOD":"95.594","EPOCH":"2022-11-05T14:20:06.700992","DECAY_DATE":null,"NORAD_CAT_ID":"46127","INCLINATION":"53.0560","TLE_LINE1":"1 46127U 20057L   22309.59729978 -.00006109  00000-0 -39181-3 0  9999","SITE":"AFETR","APOAPSIS":"548.441","CLASSIFICATION_TYPE":"U","LAUNCH_DATE":"2020-08-18","FILE":"3646512","COUNTRY_CODE":"US","REF_FRAME":"TEME","PERIAPSIS":"546.118","OBJECT_TYPE":"PAYLOAD","OBJECT_ID":"2020-057L","MEAN_MOTION":"15.06378527","GP_ID":"217016088","TIME_SYSTEM":"UTC","RCS_SIZE":"LARGE","MEAN_ANOMALY":"306.9687","MEAN_ELEMENT_THEORY":"SGP4","RA_OF_ASC_NODE":"13.8229","SEMIMAJOR_AXIS":"6925.414","CENTER_NAME":"EARTH","ARG_OF_PERICENTER":"53.1456","OBJECT_NAME":"STARLINK-1621","BSTAR":"-0.00039181000000","TLE_LINE2":"2 46127  53.0560  13.8229 0001677  53.1456 306.9687 15.06378527122447","ECCENTRICITY":"0.00016770","MEAN_MOTION_DDOT":"0.0000000000000","REV_AT_EPOCH":"12244"}];
